XRISM                   
1 57800U 23137A   23263.50220482  .00005424  00000+0  44270-3 0  9999
2 57800  31.0037 291.1096 0009903  51.2598 308.8921 14.97925367  1943
